NORAD_CAT_ID,OBJECT_NAME,OBJECT_TYPE,EPOCH,MEAN_MOTION,ECCENTRICITY,INCLINATION,RA_OF_ASC_NODE,ARG_OF_PERICENTER,MEAN_ANOMALY,BSTAR,MEAN_MOTION_DOT,MEAN_MOTION_DDOT,TLE_LINE0,TLE_LINE1,TLE_LINE2,SEMIMAJOR_AXIS,PERIOD,APOGEE,PERIGEE,DECAYED
49171.0,STARLINK-3107,PAYLOAD,2021-12-26 14:00:01,15.03029406,0.0003188,70.0002,202.5558,269.6371,41.118,-0.052525,-0.00662901,0.0,0 STARLINK-3107,1 49171U 21082AT  21360.58334491 -.00662901  00000-0 -52525-1 0  9990,2 49171  70.0002 202.5558 0003188 269.6371  41.1180 15.03029406  3608,6935.698,95.807,559.774,555.352,0.0
49171.0,STARLINK-3107,PAYLOAD,2021-12-26 22:00:00,15.02561327,0.000317,70.0001,201.7098,271.4252,42.1658,-0.053169,-0.00662738,0.0,0 STARLINK-3107,1 49171U 21082AT  21360.91667824 -.00662738  00000-0 -53169-1 0  9999,2 49171  70.0001 201.7098 0003170 271.4252  42.1658 15.02561327  3600,6937.139,95.836,561.203,556.805,0.0
49171.0,STARLINK-3107,PAYLOAD,2021-12-27 14:00:01,15.01573163,0.0003119,70.0002,200.0195,272.5089,45.0747,-0.00053041,-6.976e-05,0.0,0 STARLINK-3107,1 49171U 21082AT  21361.58334491 -.00006976  00000-0 -53041-3 0  9991,2 49171  70.0002 200.0195 0003119 272.5089  45.0747 15.01573163 17486,6940.182,95.899,564.211,559.882,0.0
49171.0,STARLINK-3107,PAYLOAD,2021-12-27 22:00:00,15.01449727,0.0003127,70.0,199.1737,273.3756,45.637,0.014561,0.00193633,0.0,0 STARLINK-3107,1 49171U 21082AT  21361.91667824  .00193633  00000-0  14561-1 0  9994,2 49171  70.0000 199.1737 0003127 273.3756  45.6370 15.01449727  3608,6940.562,95.907,564.597,560.257,0.0
49171.0,STARLINK-3107,PAYLOAD,2021-12-28 06:00:00,15.01594044,0.0002609,69.9976,198.3227,270.7597,49.6939,-0.0026378,-0.000342,0.0,0 STARLINK-3107,1 49171U 21082AT  21362.25001157 -.00034200  00000-0 -26378-2 0  9999,2 49171  69.9976 198.3227 0002609 270.7597  49.6939 15.01594044 17580,6940.1169999999975,95.898,563.793,560.172,0.0
49171.0,STARLINK-3107,PAYLOAD,2021-12-28 14:00:01,15.01609992,0.0002685,69.9978,197.4779,266.2045,55.6247,-0.0036652,-0.00047414,0.0,0 STARLINK-3107,1 49171U 21082AT  21362.58334491 -.00047414  00000-0 -36652-2 0  9992,2 49171  69.9978 197.4779 0002685 266.2045  55.6247 15.01609992  3624,6940.068,95.897,563.797,560.07,0.0
49171.0,STARLINK-3107,PAYLOAD,2021-12-28 22:00:00,15.01543894,0.0002723999999999,69.9977,196.633,274.2807,48.9544,0.0024046,0.00031241,0.0,0 STARLINK-3107,1 49171U 21082AT  21362.91667824  .00031241  00000-0  24046-2 0  9991,2 49171  69.9977 196.6330 0002724 274.2807  48.9544 15.01543894 17680,6940.272,95.901,564.0269999999998,560.246,0.0
49171.0,STARLINK-3107,PAYLOAD,2021-12-29 14:00:01,15.01576101,0.000273,69.9975,194.9434,266.4718,59.5252,-0.00089609,-0.00011713,0.0,0 STARLINK-3107,1 49171U 21082AT  21363.58335648 -.00011713  00000-0 -89609-3 0  9992,2 49171  69.9975 194.9434 0002730 266.4718  59.5252 15.01576101 17787,6940.1730000000025,95.899,563.932,560.143,0.0
49171.0,STARLINK-3107,PAYLOAD,2021-12-29 22:08:45,15.01575682,0.0002341,69.9964,194.0838,263.0387,97.0508,-0.00018959,-2.557e-05,0.0,0 STARLINK-3107,1 49171U 21082AT  21363.92274937 -.00002557  00000-0 -18959-3 0  9999,2 49171  69.9964 194.0838 0002341 263.0387  97.0508 15.01575682 17848,6940.174,95.899,563.664,560.414,0.0
49171.0,STARLINK-3107,PAYLOAD,2021-12-30 14:00:01,15.01678925,0.0003009,69.9991,192.4144,268.6979,61.2974,-0.028623,-0.00354666,0.0,0 STARLINK-3107,1 49171U 21082AT  21364.58334491 -.00354666  00000-0 -28623-1 0  9992,2 49171  69.9991 192.4144 0003009 268.6979  61.2974 15.01678925  3603,6939.856,95.893,563.809,559.633,0.0
49171.0,STARLINK-3107,PAYLOAD,2021-12-30 22:00:01,15.01443969,0.0003177,70.0002,191.5727,272.3938,59.022,-0.0548,-0.00663124,0.0,0 STARLINK-3107,1 49171U 21082AT  21364.91668981 -.00663124  00000-0 -54800-1 0  9991,2 49171  70.0002 191.5727 0003177 272.3938  59.0220 15.01443969 17993,6940.58,95.908,564.65,560.24,0.0
49171.0,STARLINK-3107,PAYLOAD,2021-12-30 22:07:48,15.01459133,0.0002265,69.9972,191.5502,284.8373,75.2537,-0.0011419,-0.00014847,0.0,0 STARLINK-3107,1 49171U 21082AT  21364.92208633 -.00014847  00000-0 -11419-2 0  9998,2 49171  69.9972 191.5502 0002265 284.8373  75.2537 15.01459133 17996,6940.533,95.907,563.97,560.826,0.0
49171.0,STARLINK-3107,PAYLOAD,2021-12-31 06:00:00,15.00977076,0.0003237,70.0,190.7291,263.1807,68.9971,-0.055645,-0.00664988,0.0,0 STARLINK-3107,1 49171U 21082AT  21365.25001157 -.00664988  00000-0 -55645-1 0  9992,2 49171  70.0000 190.7291 0003237 263.1807  68.9971 15.00977076 18047,6942.019,95.938,566.131,561.637,0.0
49171.0,STARLINK-3107,PAYLOAD,2021-12-31 14:07:49,15.009781699999998,0.0003006,69.9961,189.8645,273.7955,86.2861,-0.0055447,-0.00070275,0.0,0 STARLINK-3107,1 49171U 21082AT  21365.58877191 -.00070275  00000-0 -55447-2 0  9998,2 49171  69.9961 189.8645 0003006 273.7955  86.2861 15.00978170 18099,6942.016,95.937,565.967,561.794,0.0
49171.0,STARLINK-3107,PAYLOAD,2021-12-31 22:08:00,15.0069007,0.000248,69.9962,189.0217,276.8875,83.2003,-0.0080135,-0.00100328,0.0,0 STARLINK-3107,1 49171U 21082AT  21365.92223226 -.00100328  00000-0 -80135-2 0  9995,2 49171  69.9962 189.0217 0002480 276.8875  83.2003 15.00690070 18148,6942.904,95.956,566.491,563.047,0.0
49171.0,STARLINK-3107,PAYLOAD,2022-01-01 14:00:01,14.99107593,0.0003242,70.0002,187.3597,262.7111,67.66,-0.058425,-0.00664814,0.0,0 STARLINK-3107,1 49171U 21082AT  22001.58335648 -.00664814  00000-0 -58425-1 0  9998,2 49171  70.0002 187.3597 0003242 262.7111  67.6600 14.99107593 18242,6947.7890000000025,96.057,571.9069999999998,567.4019999999998,0.0
49171.0,STARLINK-3107,PAYLOAD,2022-01-01 14:08:37,15.00108151,0.0007876,69.9972,187.3396,308.5169,51.5284,-0.012356,-0.00151332,0.0,0 STARLINK-3107,1 49171U 21082AT  22001.58931977 -.00151332  00000-0 -12356-1 0  9994,2 49171  69.9972 187.3396 0007876 308.5169  51.5284 15.00108151 18245,6944.7,95.993,572.034,561.095,0.0
49171.0,STARLINK-3107,PAYLOAD,2022-01-01 22:00:00,14.98512986,0.0003119,69.9999,186.5187,270.1725,58.2891,-0.022741,-0.00262762,0.0,0 STARLINK-3107,1 49171U 21082AT  22001.91667824 -.00262762  00000-0 -22741-1 0  9997,2 49171  69.9999 186.5187 0003119 270.1725  58.2891 14.98512986  3592,6949.627,96.095,573.66,569.3240000000002,0.0
49171.0,STARLINK-3107,PAYLOAD,2022-01-02 06:00:00,14.98330926,0.0003146,70.0,185.6782,262.6206,63.4258,-0.00016765,-2.093e-05,0.0,0 STARLINK-3107,1 49171U 21082AT  22002.25001157 -.00002093  00000-0 -16765-3 0  9996,2 49171  70.0000 185.6782 0003146 262.6206  63.4258 14.98330926 18345,6950.19,96.107,574.242,569.868,0.0
49171.0,STARLINK-3107,PAYLOAD,2022-01-02 14:00:01,14.98364751,0.0003081,69.9979,184.8306,266.9995,56.5834,-0.0029965,-0.00035698,0.0,0 STARLINK-3107,1 49171U 21082AT  22002.58334491 -.00035698  00000-0 -29965-2 0  9994,2 49171  69.9979 184.8306 0003081 266.9995  56.5834 14.98364751  3575,6950.085,96.105,574.092,569.809,0.0
49171.0,STARLINK-3107,PAYLOAD,2022-01-02 22:00:00,14.98323018,0.0003015,69.9989,183.9901,273.4474,47.6495,0.0030218,0.00036143,0.0,0 STARLINK-3107,1 49171U 21082AT  22002.91667824  .00036143  00000-0  30218-2 0  9997,2 49171  69.9989 183.9901 0003015 273.4474  47.6495 14.98323018  3608,6950.214,96.107,574.175,569.984,0.0
49171.0,STARLINK-3107,PAYLOAD,2022-01-03 06:00:00,14.98328378,0.0002969,69.999,183.1496,269.2238,49.3701,0.0007308,8.637e-05,0.0,0 STARLINK-3107,1 49171U 21082AT  22003.25001157  .00008637  00000-0  73080-3 0  9998,2 49171  69.9990 183.1496 0002969 269.2238  49.3701 14.98328378 18484,6950.198,96.107,574.126,569.999,0.0
49171.0,STARLINK-3107,PAYLOAD,2022-01-03 14:00:01,14.98367031,0.0003034,69.9992,182.3092,267.8429,48.2314,-0.0031208,-0.00037169,0.0,0 STARLINK-3107,1 49171U 21082AT  22003.58334491 -.00037169  00000-0 -31208-2 0  9993,2 49171  69.9992 182.3092 0003034 267.8429  48.2314 14.98367031  3604,6950.078,96.105,574.052,569.835,0.0
49171.0,STARLINK-3107,PAYLOAD,2022-01-03 22:00:00,14.9832779,0.0002983,69.9992,181.4687,274.4124,39.1789,0.0029398,0.00035159,0.0,0 STARLINK-3107,1 49171U 21082AT  22003.91667824  .00035159  00000-0  29398-2 0  9991,2 49171  69.9992 181.4687 0002983 274.4124  39.1789 14.98327790  3605,6950.2,96.107,574.138,569.991,0.0
49171.0,STARLINK-3107,PAYLOAD,2022-01-04 10:00:00,14.98330818,0.0002984,69.9992,180.2081,266.877,222.9594,0.0023977,0.00028634,0.0,0 STARLINK-3107,1 49171U 21082AT  22004.41667824  .00028634  00000-0  23977-2 0  9994,2 49171  69.9992 180.2081 0002984 266.8770 222.9594 14.98330818 18666,6950.19,96.107,574.129,569.981,0.0
49171.0,STARLINK-3107,PAYLOAD,2022-01-04 14:00:01,14.98379234,0.0003067,69.9996,179.7878,268.1668,40.4067,-0.0069868,-0.0008259,0.0,0 STARLINK-3107,1 49171U 21082AT  22004.58334491 -.00082590  00000-0 -69868-2 0  9995,2 49171  69.9996 179.7878 0003067 268.1668  40.4067 14.98379234  3590,6950.041,96.104,574.0369999999998,569.774,0.0
49171.0,STARLINK-3107,PAYLOAD,2022-01-04 20:38:18,14.98337974,0.0002548,69.9983,179.0909,259.2125,100.8747,4.1605e-05,4.04e-06,0.0,0 STARLINK-3107,1 49171U 21082AT  22004.85993455  .00000404  00000-0  41605-4 0  9999,2 49171  69.9983 179.0909 0002548 259.2125 100.8747 14.98337974 18739,6950.168000000002,96.106,573.804,570.262,0.0
49171.0,STARLINK-3107,PAYLOAD,2022-01-04 22:00:00,14.98303268,0.0003107,69.9996,178.9473,274.3422,31.7415,0.0026607,0.00031777,0.0,0 STARLINK-3107,1 49171U 21082AT  22004.91667824  .00031777  00000-0  26607-2 0  9994,2 49171  69.9996 178.9473 0003107 274.3422  31.7415 14.98303268 18730,6950.276,96.109,574.3,569.981,0.0
49171.0,STARLINK-3107,PAYLOAD,2022-01-05 14:00:01,14.98342121,0.0003154,70.0,177.2664,267.9137,33.0917,-0.0031517,-0.0003751,0.0,0 STARLINK-3107,1 49171U 21082AT  22005.58334491 -.00037510  00000-0 -31517-2 0  9998,2 49171  70.0000 177.2664 0003154 267.9137  33.0917 14.98342121 18830,6950.155,96.106,574.212,569.828,0.0
